start=new Date('2022-06-18T00:00:00.000Z').valueOf();
sats=[{"TIME_SYSTEM":"UTC","ARG_OF_PERICENTER":"18.2170","TLE_LINE2":"2 46745  53.0550 265.2013 0002570  18.2170 341.8926 15.42153496 92046","PERIOD":"93.376","ECCENTRICITY":"0.00025700","RA_OF_ASC_NODE":"265.2013","ELEMENT_SET_NO":"999","COUNTRY_CODE":"US","EPOCH":"2022-06-15T23:21:52.477056","LAUNCH_DATE":"2020-10-24","INCLINATION":"53.0550","FILE":"3497002","OBJECT_ID":"2020-074G","CENTER_NAME":"EARTH","SEMIMAJOR_AXIS":"6817.892","REF_FRAME":"TEME","MEAN_ANOMALY":"341.8926","REV_AT_EPOCH":"9204","EPHEMERIS_TYPE":"0","DECAY_DATE":null,"MEAN_MOTION_DOT":"-0.00002609","PERIAPSIS":"438.005","MEAN_MOTION":"15.42153496","MEAN_MOTION_DDOT":"0.0000000000000","MEAN_ELEMENT_THEORY":"SGP4","OBJECT_TYPE":"PAYLOAD","CLASSIFICATION_TYPE":"U","OBJECT_NAME":"STARLINK-1898","APOAPSIS":"441.509","GP_ID":"206288555","SITE":"AFETR","RCS_SIZE":"LARGE","BSTAR":"-0.00005050100000","NORAD_CAT_ID":"46745","TLE_LINE1":"1 46745U 20074G   22166.97352404 -.00002609  00000-0 -50501-4 0  9994"},{"SEMIMAJOR_AXIS":"6925.384","REF_FRAME":"TEME","MEAN_ANOMALY":"306.6654","REV_AT_EPOCH":"9124","PERIAPSIS":"546.148","MEAN_MOTION_DOT":"-0.00002035","MEAN_MOTION":"15.06388478","EPHEMERIS_TYPE":"0","DECAY_DATE":null,"OBJECT_ID":"2020-074H","CENTER_NAME":"EARTH","LAUNCH_DATE":"2020-10-24","FILE":"3496999","INCLINATION":"53.0551","ECCENTRICITY":"0.00015900","TLE_LINE2":"2 46746  53.0551 320.1930 0001590  53.4481 306.6654 15.06388478 91242","PERIOD":"95.593","ARG_OF_PERICENTER":"53.4481","TIME_SYSTEM":"UTC","RA_OF_ASC_NODE":"320.1930","COUNTRY_CODE":"US","EPOCH":"2022-06-15T17:30:58.090464","ELEMENT_SET_NO":"999","RCS_SIZE":"LARGE","BSTAR":"-0.00011777000000","TLE_LINE1":"1 46746U 20074H   22166.72983901 -.00002035  00000-0 -11777-3 0  9994","NORAD_CAT_ID":"46746","OBJECT_NAME":"STARLINK-1905","APOAPSIS":"548.350","SITE":"AFETR","GP_ID":"206237053","MEAN_ELEMENT_THEORY":"SGP4","MEAN_MOTION_DDOT":"0.0000000000000","CLASSIFICATION_TYPE":"U","OBJECT_TYPE":"PAYLOAD"},{"LAUNCH_DATE":"2020-10-24","FILE":"3496999","INCLINATION":"53.0558","ARG_OF_PERICENTER":"72.7851","TLE_LINE2":"2 46747  53.0558 320.2749 0001370  72.7851 287.3288 15.06401656 91242","PERIOD":"95.592","ECCENTRICITY":"0.00013700","TIME_SYSTEM":"UTC","RA_OF_ASC_NODE":"320.2749","EPOCH":"2022-06-15T17:04:24.640320","COUNTRY_CODE":"US","ELEMENT_SET_NO":"999","SEMIMAJOR_AXIS":"6925.343","REF_FRAME":"TEME","MEAN_ANOMALY":"287.3288","REV_AT_EPOCH":"9124","MEAN_MOTION":"15.06401656","PERIAPSIS":"546.260","MEAN_MOTION_DOT":"0.00000433","EPHEMERIS_TYPE":"0","DECAY_DATE":null,"OBJECT_ID":"2020-074J","CENTER_NAME":"EARTH","OBJECT_NAME":"STARLINK-1908","APOAPSIS":"548.157","SITE":"AFETR","GP_ID":"206237304","MEAN_ELEMENT_THEORY":"SGP4","MEAN_MOTION_DDOT":"0.0000000000000","OBJECT_TYPE":"PAYLOAD","CLASSIFICATION_TYPE":"U","RCS_SIZE":"LARGE","BSTAR":"0.00004795200000","TLE_LINE1":"1 46747U 20074J   22166.71139630  .00000433  00000-0  47952-4 0  9999","NORAD_CAT_ID":"46747"},{"EPOCH":"2022-06-15T17:15:02.632608","COUNTRY_CODE":"US","ELEMENT_SET_NO":"999","RA_OF_ASC_NODE":"320.2446","PERIOD":"95.593","TLE_LINE2":"2 46748  53.0535 320.2446 0001658  82.8432 277.2746 15.06393120 91241","ARG_OF_PERICENTER":"82.8432","ECCENTRICITY":"0.00016580","TIME_SYSTEM":"UTC","FILE":"3496999","INCLINATION":"53.0535","LAUNCH_DATE":"2020-10-24","CENTER_NAME":"EARTH","OBJECT_ID":"2020-074K","MEAN_MOTION":"15.06393120","PERIAPSIS":"546.086","MEAN_MOTION_DOT":"-0.00003012","EPHEMERIS_TYPE":"0","DECAY_DATE":null,"REV_AT_EPOCH":"9124","MEAN_ANOMALY":"277.2746","REF_FRAME":"TEME","SEMIMAJOR_AXIS":"6925.370","OBJECT_TYPE":"PAYLOAD","CLASSIFICATION_TYPE":"U","MEAN_ELEMENT_THEORY":"SGP4","MEAN_MOTION_DDOT":"0.0000000000000","SITE":"AFETR","GP_ID":"206236052","APOAPSIS":"548.383","OBJECT_NAME":"STARLINK-1910","TLE_LINE1":"1 46748U 20074K   22166.71878047 -.00003012  00000-0 -18345-3 0  9993","NORAD_CAT_ID":"46748","BSTAR":"-0.00018345000000","RCS_SIZE":"LARGE"},{"TLE_LINE2":"2 46749  53.0549 320.2134 0001411  73.0002 287.1142 15.06397992 91244","PERIOD":"95.592","ARG_OF_PERICENTER":"73.0002","ECCENTRICITY":"0.00014110","TIME_SYSTEM":"UTC","COUNTRY_CODE":"US","EPOCH":"2022-06-15T17:25:38.637696","ELEMENT_SET_NO":"999","RA_OF_ASC_NODE":"320.2134","FILE":"3496999","INCLINATION":"53.0549","LAUNCH_DATE":"2020-10-24","CENTER_NAME":"EARTH","OBJECT_ID":"2020-074L","REF_FRAME":"TEME","SEMIMAJOR_AXIS":"6925.355","MEAN_MOTION":"15.06397992","PERIAPSIS":"546.243","MEAN_MOTION_DOT":"-0.00000118","DECAY_DATE":null,"EPHEMERIS_TYPE":"0","MEAN_ANOMALY":"287.1142","REV_AT_EPOCH":"9124","MEAN_ELEMENT_THEORY":"SGP4","MEAN_MOTION_DDOT":"0.0000000000000","CLASSIFICATION_TYPE":"U","OBJECT_TYPE":"PAYLOAD","OBJECT_NAME":"STARLINK-1911","SITE":"AFETR","GP_ID":"206236302","APOAPSIS":"548.197","BSTAR":"0.00001097500000","RCS_SIZE":"LARGE","TLE_LINE1":"1 46749U 20074L   22166.72614164 -.00000118  00000-0  10975-4 0  9998","NORAD_CAT_ID":"46749"},{"REV_AT_EPOCH":"9127","MEAN_ANOMALY":"272.6238","EPHEMERIS_TYPE":"0","DECAY_DATE":null,"MEAN_MOTION_DOT":"0.00000397","PERIAPSIS":"546.278","MEAN_MOTION":"15.06393498","SEMIMAJOR_AXIS":"6925.368","REF_FRAME":"TEME","OBJECT_ID":"2020-074N","CENTER_NAME":"EARTH","LAUNCH_DATE":"2020-10-24","INCLINATION":"53.0558","FILE":"3497002","RA_OF_ASC_NODE":"319.3291","ELEMENT_SET_NO":"999","EPOCH":"2022-06-15T22:06:57.790080","COUNTRY_CODE":"US","TIME_SYSTEM":"UTC","TLE_LINE2":"2 46751  53.0558 319.3291 0001380  87.4908 272.6238 15.06393498 91274","PERIOD":"95.593","ARG_OF_PERICENTER":"87.4908","ECCENTRICITY":"0.00013800","NORAD_CAT_ID":"46751","TLE_LINE1":"1 46751U 20074N   22166.92150220  .00000397  00000-0  45526-4 0  9999","RCS_SIZE":"LARGE","BSTAR":"0.00004552600000","APOAPSIS":"548.189","GP_ID":"206288803","SITE":"AFETR","OBJECT_NAME":"STARLINK-1920","CLASSIFICATION_TYPE":"U","OBJECT_TYPE":"PAYLOAD","MEAN_MOTION_DDOT":"0.0000000000000","MEAN_ELEMENT_THEORY":"SGP4"},{"OBJECT_NAME":"STARLINK-1921","GP_ID":"206208106","SITE":"AFETR","APOAPSIS":"548.163","MEAN_MOTION_DDOT":"0.0000000000000","MEAN_ELEMENT_THEORY":"SGP4","CLASSIFICATION_TYPE":"U","OBJECT_TYPE":"PAYLOAD","BSTAR":"-0.00011632000000","RCS_SIZE":"LARGE","NORAD_CAT_ID":"46752","TLE_LINE1":"1 46752U 20074P   22166.53448114 -.00002013  00000-0 -11632-3 0  9998","INCLINATION":"53.0555","FILE":"3496794","LAUNCH_DATE":"2020-10-24","TIME_SYSTEM":"UTC","TLE_LINE2":"2 46752  53.0555 321.0493 0001331  50.6571 309.4536 15.06390817 91216","PERIOD":"95.593","ECCENTRICITY":"0.00013310","ARG_OF_PERICENTER":"50.6571","ELEMENT_SET_NO":"999","COUNTRY_CODE":"US","EPOCH":"2022-06-15T12:49:39.170496","RA_OF_ASC_NODE":"321.0493","REF_FRAME":"TEME","SEMIMAJOR_AXIS":"6925.377","EPHEMERIS_TYPE":"0","DECAY_DATE":null,"MEAN_MOTION_DOT":"-0.00002013","PERIAPSIS":"546.320","MEAN_MOTION":"15.06390817","REV_AT_EPOCH":"9121","MEAN_ANOMALY":"309.4536","CENTER_NAME":"EARTH","OBJECT_ID":"2020-074P"},{"BSTAR":"0.00001271800000","RCS_SIZE":"LARGE","NORAD_CAT_ID":"46753","TLE_LINE1":"1 46753U 20074Q   22166.70034425 -.00000092  00000-0  12718-4 0  9995","OBJECT_NAME":"STARLINK-1922","GP_ID":"206236552","SITE":"AFETR","APOAPSIS":"548.276","MEAN_MOTION_DDOT":"0.0000000000000","MEAN_ELEMENT_THEORY":"SGP4","OBJECT_TYPE":"PAYLOAD","CLASSIFICATION_TYPE":"U","REF_FRAME":"TEME","SEMIMAJOR_AXIS":"6925.368","EPHEMERIS_TYPE":"0","DECAY_DATE":null,"PERIAPSIS":"546.191","MEAN_MOTION_DOT":"-0.00000092","MEAN_MOTION":"15.06393530","REV_AT_EPOCH":"9124","MEAN_ANOMALY":"286.6333","CENTER_NAME":"EARTH","OBJECT_ID":"2020-074Q","INCLINATION":"53.0564","FILE":"3496999","LAUNCH_DATE":"2020-10-24","TIME_SYSTEM":"UTC","PERIOD":"95.593","TLE_LINE2":"2 46753  53.0564 320.3130 0001505  73.4821 286.6333 15.06393530 91240","ARG_OF_PERICENTER":"73.4821","ECCENTRICITY":"0.00015050","ELEMENT_SET_NO":"999","COUNTRY_CODE":"US","EPOCH":"2022-06-15T16:48:29.743200","RA_OF_ASC_NODE":"320.3130"},{"OBJECT_TYPE":"PAYLOAD","CLASSIFICATION_TYPE":"U","MEAN_ELEMENT_THEORY":"SGP4","MEAN_MOTION_DDOT":"0.0000000000000","APOAPSIS":"548.608","SITE":"AFETR","GP_ID":"206236802","OBJECT_NAME":"STARLINK-1923","TLE_LINE1":"1 46754U 20074R   22166.70772036 -.00000925  00000-0 -43184-4 0  9990","NORAD_CAT_ID":"46754","RCS_SIZE":"LARGE","BSTAR":"-0.00004318400000","RA_OF_ASC_NODE":"320.2739","COUNTRY_CODE":"US","EPOCH":"2022-06-15T16:59:07.039104","ELEMENT_SET_NO":"999","TLE_LINE2":"2 46754  53.0522 320.2739 0001978  85.6931 274.4284 15.06392135 91240","PERIOD":"95.593","ECCENTRICITY":"0.00019780","ARG_OF_PERICENTER":"85.6931","TIME_SYSTEM":"UTC","LAUNCH_DATE":"2020-10-24","FILE":"3496999","INCLINATION":"53.0522","OBJECT_ID":"2020-074R","CENTER_NAME":"EARTH","REV_AT_EPOCH":"9124","MEAN_ANOMALY":"274.4284","PERIAPSIS":"545.868","MEAN_MOTION":"15.06392135","MEAN_MOTION_DOT":"-0.00000925","EPHEMERIS_TYPE":"0","DECAY_DATE":null,"SEMIMAJOR_AXIS":"6925.373","REF_FRAME":"TEME"},{"BSTAR":"-0.00006697900000","RCS_SIZE":"LARGE","NORAD_CAT_ID":"46755","TLE_LINE1":"1 46755U 20074S   22166.71278849 -.00001279  00000-0 -66979-4 0  9995","MEAN_MOTION_DDOT":"0.0000000000000","MEAN_ELEMENT_THEORY":"SGP4","OBJECT_TYPE":"PAYLOAD","CLASSIFICATION_TYPE":"U","OBJECT_NAME":"STARLINK-1924","GP_ID":"206237054","SITE":"AFETR","APOAPSIS":"548.365","CENTER_NAME":"EARTH","OBJECT_ID":"2020-074S","REF_FRAME":"TEME","SEMIMAJOR_AXIS":"6925.381","DECAY_DATE":null,"EPHEMERIS_TYPE":"0","MEAN_MOTION_DOT":"-0.00001279","PERIAPSIS":"546.127","MEAN_MOTION":"15.06389472","REV_AT_EPOCH":"9117","MEAN_ANOMALY":"292.8630","TIME_SYSTEM":"UTC","ARG_OF_PERICENTER":"67.2529","TLE_LINE2":"2 46755  53.0547 325.2523 0001616  67.2529 292.8630 15.06389472 91173","PERIOD":"95.593","ECCENTRICITY":"0.00016160","ELEMENT_SET_NO":"999","COUNTRY_CODE":"US","EPOCH":"2022-06-15T17:06:24.925536","RA_OF_ASC_NODE":"325.2523","INCLINATION":"53.0547","FILE":"3496999","LAUNCH_DATE":"2020-10-24"}];
